NORAD_CAT_ID,OBJECT_NAME,OBJECT_TYPE,EPOCH,MEAN_MOTION,ECCENTRICITY,INCLINATION,RA_OF_ASC_NODE,ARG_OF_PERICENTER,MEAN_ANOMALY,BSTAR,MEAN_MOTION_DOT,MEAN_MOTION_DDOT,TLE_LINE0,TLE_LINE1,TLE_LINE2,SEMIMAJOR_AXIS,PERIOD,APOGEE,PERIGEE,DECAYED
53535.0,STARLINK-4138,PAYLOAD,2022-10-27 06:00:00,15.08848448,0.0001732,53.2168,193.2769,54.8254,326.8064,0.00094976,0.00014863,0.0,0 STARLINK-4138,1 53535U 22101J   22300.25001157  .00014863  00000-0  94976-3 0  9995,2 53535  53.2168 193.2769 0001732  54.8254 326.8064 15.08848448 10567,6917.855,95.437,540.918,538.521,0.0
53535.0,STARLINK-4138,PAYLOAD,2022-10-27 14:00:01,15.08835242,0.0001571999999999,53.217,191.7787,62.1924,331.1231,0.0013912,0.00021919,0.0,0 STARLINK-4138,1 53535U 22101J   22300.58335648  .00021919  00000-0  13912-2 0  9996,2 53535  53.2170 191.7787 0001572  62.1924 331.1231 15.08835242  1306,6917.895,95.438,540.847,538.672,0.0
53535.0,STARLINK-4138,PAYLOAD,2022-10-27 22:00:00,15.08856863,0.0001671,53.217,190.2838,58.083,346.7672,-0.00081559,-0.00013251,0.0,0 STARLINK-4138,1 53535U 22101J   22300.91667824 -.00013251  00000-0 -81559-3 0  9992,2 53535  53.2170 190.2838 0001671  58.0830 346.7672 15.08856863  1300,6917.829000000002,95.436,540.85,538.538,0.0
53535.0,STARLINK-4138,PAYLOAD,2022-10-28 14:00:01,15.08826192,0.0001416,53.217,187.2895,59.0551,9.0895,0.00085787,0.00013386,0.0,0 STARLINK-4138,1 53535U 22101J   22301.58335648  .00013386  00000-0  85787-3 0  9996,2 53535  53.2170 187.2895 0001416  59.0551   9.0895 15.08826192  1305,6917.9230000000025,95.438,540.7669999999998,538.808,0.0
53535.0,STARLINK-4138,PAYLOAD,2022-10-28 22:00:01,15.08838053,0.0001537,53.217,185.7947,54.1708,25.5589,-0.00073918,-0.00012032,0.0,0 STARLINK-4138,1 53535U 22101J   22301.91668981 -.00012032  00000-0 -73918-3 0  9994,2 53535  53.2170 185.7947 0001537  54.1708  25.5589 15.08838053 10818,6917.886,95.438,540.815,538.688,0.0
53535.0,STARLINK-4138,PAYLOAD,2022-10-29 12:00:00,15.08808444,0.0001481,53.2169,183.1749,60.9516,309.0191,0.0036564999999999,0.00058337,0.0,0 STARLINK-4138,1 53535U 22101J   22302.50001157  .00058337  00000-0  36565-2 0  9998,2 53535  53.2169 183.1749 0001481  60.9516 309.0191 15.08808444  1302,6917.977,95.44,540.866,538.817,0.0
53535.0,STARLINK-4138,PAYLOAD,2022-10-29 22:00:01,15.08863959,0.0001607,53.2168,181.3057,56.9038,57.6126,-0.00096769,-0.00015666,0.0,0 STARLINK-4138,1 53535U 22101J   22302.91668981 -.00015666  00000-0 -96769-3 0  9990,2 53535  53.2168 181.3057 0001607  56.9038  57.6126 15.08863959  1303,6917.807,95.436,540.784,538.56,0.0
53535.0,STARLINK-4138,PAYLOAD,2022-10-30 00:00:00,15.08859897,0.0001631,53.2169,180.932,55.4669,151.8921,-0.0005917,-9.698e-05,0.0,0 STARLINK-4138,1 53535U 22101J   22303.00001157 -.00009698  00000-0 -59170-3 0  9990,2 53535  53.2169 180.9320 0001631  55.4669 151.8921 15.08859897 10972,6917.82,95.436,540.813,538.556,0.0
53535.0,STARLINK-4138,PAYLOAD,2022-10-30 14:00:01,15.08874254,0.0001505,53.2171,178.3141,61.4079,76.2544,-0.0096111,-0.00150217,0.0,0 STARLINK-4138,1 53535U 22101J   22303.58334491 -.00150217  00000-0 -96111-2 0  9992,2 53535  53.2171 178.3141 0001505  61.4079  76.2544 15.08874254  1301,6917.776,95.435,540.682,538.6,0.0
53535.0,STARLINK-4138,PAYLOAD,2022-10-30 22:00:01,15.08841632,0.0001625,53.2166,176.8168,58.5571,90.7518,-0.0012957,-0.00020851,0.0,0 STARLINK-4138,1 53535U 22101J   22303.91668981 -.00020851  00000-0 -12957-2 0  9999,2 53535  53.2166 176.8168 0001625  58.5571  90.7518 15.08841632  1300,6917.875,95.437,540.865,538.616,0.0
53535.0,STARLINK-4138,PAYLOAD,2022-10-31 14:00:01,15.08808199,0.0001416999999999,53.2165,173.8226,63.9039,108.5077,0.0028399999999999,0.00045161,0.0,0 STARLINK-4138,1 53535U 22101J   22304.58334491  .00045161  00000-0  28400-2 0  9998,2 53535  53.2165 173.8226 0001417  63.9039 108.5077 15.08808199  1308,6917.978,95.44,540.823,538.862,0.0
53535.0,STARLINK-4138,PAYLOAD,2022-10-31 22:00:01,15.08846016,0.0001519,53.2164,172.328,56.8566,127.1942,-0.0026715999999999,-0.00042563,0.0,0 STARLINK-4138,1 53535U 22101J   22304.91668981 -.00042563  00000-0 -26716-2 0  9992,2 53535  53.2164 172.3280 0001519  56.8566 127.1942 15.08846016 11264,6917.861999999999,95.437,540.778,538.6759999999998,0.0
53535.0,STARLINK-4138,PAYLOAD,2022-11-01 14:00:01,15.08802314,0.000148,53.2168,169.3378,56.1075,151.0451,0.0028871,0.00045912,0.0,0 STARLINK-4138,1 53535U 22101J   22305.58334491  .00045912  00000-0  28871-2 0  9995,2 53535  53.2168 169.3378 0001480  56.1075 151.0451 15.08802314  1305,6917.996,95.44,540.884,538.837,0.0
53535.0,STARLINK-4138,PAYLOAD,2022-11-01 22:00:00,15.08835612,0.000155,53.2164,167.8392,55.3459,163.3917,0.00038634,5.865e-05,0.0,0 STARLINK-4138,1 53535U 22101J   22305.91667824  .00005865  00000-0  38634-3 0  9993,2 53535  53.2164 167.8392 0001550  55.3459 163.3917 15.08835612  1305,6917.894,95.438,540.831,538.687,0.0
53535.0,STARLINK-4138,PAYLOAD,2022-11-02 06:00:00,15.0887223,0.000154,53.2163,166.3422,55.4943,174.8301,-0.0043641,-0.00069137,0.0,0 STARLINK-4138,1 53535U 22101J   22306.25001157 -.00069137  00000-0 -43641-2 0  9999,2 53535  53.2163 166.3422 0001540  55.4943 174.8301 15.08872230 11469,6917.781999999997,95.436,540.712,538.582,0.0
53535.0,STARLINK-4138,PAYLOAD,2022-11-02 14:00:01,15.08820233,0.0001534,53.2164,164.8454,64.829,177.1004,0.0023785,0.00037748,0.0,0 STARLINK-4138,1 53535U 22101J   22306.58334491  .00037748  00000-0  23785-2 0  9993,2 53535  53.2164 164.8454 0001534  64.8290 177.1004 15.08820233  1304,6917.941,95.439,540.867,538.745,0.0
53535.0,STARLINK-4138,PAYLOAD,2022-11-02 20:52:52,15.08837558,0.0001646,53.218,163.558,61.1809,298.9348,9.1616e-05,1.17e-05,0.0,0 STARLINK-4138,1 53535U 22101J   22306.87005219  .00001170  00000-0  91616-4 0  9998,2 53535  53.2180 163.5580 0001646  61.1809 298.9348 15.08837558 11568,6917.888000000001,95.438,540.8919999999998,538.614,0.0
53535.0,STARLINK-4138,PAYLOAD,2022-11-03 00:03:38,15.08838315,0.0001665,53.218,162.9634,61.1189,298.997,9.5436e-05,1.231e-05,0.0,0 STARLINK-4138,1 53535U 22101J   22307.00253194  .00001231  00000-0  95436-4 0  9993,2 53535  53.2180 162.9634 0001665  61.1189 298.9970 15.08838315 11588,6917.886,95.438,540.9019999999998,538.599,0.0
53535.0,STARLINK-4138,PAYLOAD,2022-11-03 17:32:52,15.08842504,0.0001671,53.2175,159.6923,62.235,297.8812,0.00014822,2.072e-05,0.0,0 STARLINK-4138,1 53535U 22101J   22307.73116862  .00002072  00000-0  14822-3 0  9996,2 53535  53.2175 159.6923 0001671  62.2350 297.8812 15.08842504 11695,6917.873000000001,95.437,540.894,538.582,0.0
53535.0,STARLINK-4138,PAYLOAD,2022-11-04 01:29:48,15.08845196,0.0001619,53.2175,158.2051,63.2442,296.8716,9.1573e-05,1.17e-05,0.0,0 STARLINK-4138,1 53535U 22101J   22308.06236811  .00001170  00000-0  91573-4 0  9997,2 53535  53.2175 158.2051 0001619  63.2442 296.8716 15.08845196 11745,6917.865,95.437,540.85,538.61,0.0
53535.0,STARLINK-4138,PAYLOAD,2022-11-04 14:12:53,15.08848206,0.0001612,53.2175,155.8263,62.178,297.9376,0.00013951,1.933e-05,0.0,0 STARLINK-4138,1 53535U 22101J   22308.59228337  .00001933  00000-0  13951-3 0  9999,2 53535  53.2175 155.8263 0001612  62.1780 297.9376 15.08848206 11827,6917.855,95.437,540.835,538.605,0.0
53535.0,STARLINK-4138,PAYLOAD,2022-11-04 20:34:26,15.08838057,0.0001658,53.2175,154.6376,57.9253,302.19,4.9504e-05,5e-06,0.0,0 STARLINK-4138,1 53535U 22101J   22308.85725162  .00000500  00000-0  49504-4 0  9999,2 53535  53.2175 154.6376 0001658  57.9253 302.1900 15.08838057 11865,6917.886,95.438,540.898,538.604,0.0
53535.0,STARLINK-4138,PAYLOAD,2022-11-05 01:20:36,15.08835453,0.0001526,53.2179,153.7453,56.5093,303.6045,-4.59e-05,-1.018e-05,0.0,0 STARLINK-4138,1 53535U 22101J   22309.05597520 -.00001018  00000-0 -45900-4 0  9990,2 53535  53.2179 153.7453 0001526  56.5093 303.6045 15.08835453 11892,6917.894,95.438,540.815,538.7040000000002,0.0
53535.0,STARLINK-4138,PAYLOAD,2022-11-05 20:25:14,15.0882731,0.0001501999999999,53.2186,150.1773,51.6276,308.4851,-0.00010817,-2.008e-05,0.0,0 STARLINK-4138,1 53535U 22101J   22309.85086538 -.00002008  00000-0 -10817-3 0  9998,2 53535  53.2186 150.1773 0001502  51.6276 308.4851 15.08827310 12015,6917.919,95.438,540.823,538.745,0.0
53535.0,STARLINK-4138,PAYLOAD,2022-11-06 01:11:24,15.08829267,0.000153,53.2183,149.285,54.0612,306.0522,-8.1869e-05,-1.59e-05,0.0,0 STARLINK-4138,1 53535U 22101J   22310.04958453 -.00001590  00000-0 -81869-4 0  9996,2 53535  53.2183 149.2850 0001530  54.0612 306.0522 15.08829267 12044,6917.913000000001,95.438,540.837,538.72,0.0
53535.0,STARLINK-4138,PAYLOAD,2022-11-06 18:40:38,15.0882802,0.0001553,53.218,146.0141,55.6228,304.4911,2.7887e-05,1.56e-06,0.0,0 STARLINK-4138,1 53535U 22101J   22310.77822612  .00000156  00000-0  27887-4 0  9998,2 53535  53.2180 146.0141 0001553  55.6228 304.4911 15.08828020 12156,6917.917,95.438,540.856,538.7080000000002,0.0
53535.0,STARLINK-4138,PAYLOAD,2022-11-07 20:06:48,15.08832381,0.0001583,53.218,141.2563,55.5825,304.5316,0.00015274,2.143e-05,0.0,0 STARLINK-4138,1 53535U 22101J   22311.83806630  .00002143  00000-0  15274-3 0  9992,2 53535  53.2180 141.2563 0001583  55.5825 304.5316 15.08832381 12319,6917.904,95.438,540.864,538.674,0.0
53535.0,STARLINK-4138,PAYLOAD,2022-11-08 05:39:07,15.08843588,0.0001616,53.2178,139.4724,56.3615,303.7531,0.00018689,2.688e-05,0.0,0 STARLINK-4138,1 53535U 22101J   22312.23549775  .00002688  00000-0  18689-3 0  9998,2 53535  53.2178 139.4724 0001616  56.3615 303.7531 15.08843588 12374,6917.869000000002,95.437,540.852,538.616,0.0
53535.0,STARLINK-4138,PAYLOAD,2022-11-08 21:32:58,15.08842223,0.0001644,53.2179,136.4988,58.0074,302.1078,7.724899999999999e-05,9.42e-06,0.0,0 STARLINK-4138,1 53535U 22101J   22312.89790183  .00000942  00000-0  77249-4 0  9990,2 53535  53.2179 136.4988 0001644  58.0074 302.1078 15.08842223 12478,6917.874,95.437,540.876,538.601,0.0
